NORAD_CAT_ID,OBJECT_NAME,OBJECT_TYPE,EPOCH,MEAN_MOTION,ECCENTRICITY,INCLINATION,RA_OF_ASC_NODE,ARG_OF_PERICENTER,MEAN_ANOMALY,BSTAR,MEAN_MOTION_DOT,MEAN_MOTION_DDOT,TLE_LINE0,TLE_LINE1,TLE_LINE2,SEMIMAJOR_AXIS,PERIOD,APOGEE,PERIGEE,DECAYED
53604.0,STARLINK-4690,PAYLOAD,2023-12-28 21:31:41,15.08842026,0.0001466,53.2163,238.3636,111.6792,248.4356,2.2808e-05,7.5e-07,0.0,0 STARLINK-4690,1 53604U 22104S   23362.89700545  .00000075  00000-0  22808-4 0  9997,2 53604  53.2163 238.3636 0001466 111.6792 248.4356 15.08842026 74644,6917.874,95.437,540.753,538.725,0.0
53604.0,STARLINK-4690,PAYLOAD,2023-12-29 00:42:27,15.08844806,0.0001333,53.2161,237.7693,100.2485,259.8657,4.9181e-05,4.95e-06,0.0,0 STARLINK-4690,1 53604U 22104S   23363.02948336  .00000495  00000-0  49181-4 0  9994,2 53604  53.2161 237.7693 0001333 100.2485 259.8657 15.08844806 73977,6917.866,95.437,540.653,538.809,0.0
53604.0,STARLINK-4690,PAYLOAD,2023-12-29 19:47:05,15.08828911,0.0001311,53.2166,234.2052,99.9437,260.1704,0.00019438,2.806e-05,0.0,0 STARLINK-4690,1 53604U 22104S   23363.82437125  .00002806  00000-0  19438-3 0  9990,2 53604  53.2166 234.2052 0001311  99.9437 260.1704 15.08828911 74091,6917.914,95.438,540.686,538.872,0.0
53604.0,STARLINK-4690,PAYLOAD,2023-12-29 21:22:28,15.0883676,0.0001312,53.2164,233.9085,98.5679,261.5462,7.8548e-05,9.62e-06,0.0,0 STARLINK-4690,1 53604U 22104S   23363.89060959  .00000962  00000-0  78548-4 0  9993,2 53604  53.2164 233.9085 0001312  98.5679 261.5462 15.08836760 74799,6917.89,95.438,540.663,538.848,0.0
53604.0,STARLINK-4690,PAYLOAD,2023-12-30 00:33:14,15.08839995,0.0001299,53.2164,233.3124,90.4213,269.6928,0.0001008,1.317e-05,0.0,0 STARLINK-4690,1 53604U 22104S   23364.02308727  .00001317  00000-0  10080-3 0  9998,2 53604  53.2164 233.3124 0001299  90.4213 269.6928 15.08839995 74122,6917.88,95.438,540.644,538.847,0.0
53604.0,STARLINK-4690,PAYLOAD,2023-12-30 14:51:43,15.08839574,0.0001355,53.2167,230.6374,90.3219,269.7928,6.1265e-05,6.87e-06,0.0,0 STARLINK-4690,1 53604U 22104S   23364.61924999  .00000687  00000-0  61265-4 0  9999,2 53604  53.2167 230.6374 0001355  90.3219 269.7928 15.08839574 74900,6917.882,95.438,540.684,538.809,0.0
53604.0,STARLINK-4690,PAYLOAD,2023-12-30 22:48:38,15.08841492,0.0001374,53.2164,229.1504,87.9752,272.1397,6.6061e-05,7.64e-06,0.0,0 STARLINK-4690,1 53604U 22104S   23364.95044798  .00000764  00000-0  66061-4 0  9991,2 53604  53.2164 229.1504 0001374  87.9752 272.1397 15.08841492 74955,6917.876,95.437,540.691,538.79,0.0
53604.0,STARLINK-4690,PAYLOAD,2023-12-31 19:28:39,15.08837883,0.0001493,53.2164,225.2855,80.255,279.8611,3.2038e-05,2.22e-06,0.0,0 STARLINK-4690,1 53604U 22104S   23365.81157311  .00000222  00000-0  32038-4 0  9999,2 53604  53.2164 225.2855 0001493  80.2550 279.8611 15.08837883 74395,6917.887,95.438,540.785,538.719,0.0
53604.0,STARLINK-4690,PAYLOAD,2023-12-31 21:04:03,15.08837664,0.0001497,53.2163,224.9881,79.9801,280.136,2.719e-05,1.45e-06,0.0,0 STARLINK-4690,1 53604U 22104S   23365.87781300  .00000145  00000-0  27190-4 0  9993,2 53604  53.2163 224.9881 0001497  79.9801 280.1360 15.08837664 75098,6917.888,95.438,540.788,538.717,0.0
53604.0,STARLINK-4690,PAYLOAD,2024-01-01 19:19:26,15.088463,0.0001444,53.2157,220.8243,81.773,278.3426,0.00010135,1.326e-05,0.0,0 STARLINK-4690,1 53604U 22104S   24001.80516414  .00001326  00000-0  10135-3 0  9998,2 53604  53.2157 220.8243 0001444  81.7730 278.3426 15.08846300 74540,6917.861,95.437,540.725,538.727,0.0
53604.0,STARLINK-4690,PAYLOAD,2024-01-01 20:54:49,15.08846823,0.0001435,53.2157,220.5269,82.0389,278.0766,0.00010833,1.437e-05,0.0,0 STARLINK-4690,1 53604U 22104S   24001.87140350  .00001437  00000-0  10833-3 0  9995,2 53604  53.2157 220.5269 0001435  82.0389 278.0766 15.08846823 75241,6917.86,95.437,540.717,538.732,0.0
53604.0,STARLINK-4690,PAYLOAD,2024-01-02 14:24:04,15.08832963,0.0001345,53.2149,217.2541,79.4837,280.6306,-4.0331e-06,-3.52e-06,0.0,0 STARLINK-4690,1 53604U 22104S   24002.60005766 -.00000352  00000-0 -40331-5 0  9993,2 53604  53.2149 217.2541 0001345  79.4837 280.6306 15.08832963 75357,6917.902,95.438,540.697,538.836,0.0
53604.0,STARLINK-4690,PAYLOAD,2024-01-02 19:10:14,15.08836494,0.0001521,53.216,216.3573,111.2148,248.9006,-1.7493e-05,-5.66e-06,0.0,0 STARLINK-4690,1 53604U 22104S   24002.79877595 -.00000566  00000-0 -17493-4 0  9999,2 53604  53.2160 216.3573 0001521 111.2148 248.9006 15.08836494 74694,6917.891,95.438,540.808,538.704,0.0
53604.0,STARLINK-4690,PAYLOAD,2024-01-02 20:45:36,15.08843903,0.0001374,53.2155,216.0648,66.9038,293.2098,8.4596e-05,1.059e-05,0.0,0 STARLINK-4690,1 53604U 22104S   24002.86500894  .00001059  00000-0  84596-4 0  9996,2 53604  53.2155 216.0648 0001374  66.9038 293.2098 15.08843903 75393,6917.868,95.437,540.684,538.783,0.0
53604.0,STARLINK-4690,PAYLOAD,2024-01-02 23:56:22,15.08848685,0.0001354,53.2151,215.4715,78.9015,281.2129,0.00011893,1.606e-05,0.0,0 STARLINK-4690,1 53604U 22104S   24002.99748452  .00001606  00000-0  11893-3 0  9991,2 53604  53.2151 215.4715 0001354  78.9015 281.2129 15.08848685 74723,6917.854,95.437,540.656,538.782,0.0
53604.0,STARLINK-4690,PAYLOAD,2024-01-03 19:01:00,15.08841547,0.0001744,53.216,211.9003,66.6156,293.502,1.9141e-05,1.7e-07,0.0,0 STARLINK-4690,1 53604U 22104S   24003.79237146  .00000017  00000-0  19141-4 0  9993,2 53604  53.2160 211.9003 0001744  66.6156 293.5020 15.08841547 74846,6917.876,95.437,540.947,538.534,0.0
53604.0,STARLINK-4690,PAYLOAD,2024-01-03 20:36:23,15.08845475,0.0001332,53.2162,211.6025,107.4969,252.6169,-2.8061e-05,-7.35e-06,0.0,0 STARLINK-4690,1 53604U 22104S   24003.85860833 -.00000735  00000-0 -28061-4 0  9995,2 53604  53.2162 211.6025 0001332 107.4969 252.6169 15.08845475 75540,6917.864,95.437,540.65,538.807,0.0
53604.0,STARLINK-4690,PAYLOAD,2024-01-03 23:47:10,15.08840592,0.0001731,53.2157,211.0091,66.9888,293.1286,1.1762e-05,-1.01e-06,0.0,0 STARLINK-4690,1 53604U 22104S   24003.99109224 -.00000101  00000-0  11762-4 0  9996,2 53604  53.2157 211.0091 0001731  66.9888 293.1286 15.08840592 75560,6917.879,95.438,540.941,538.546,0.0
53604.0,STARLINK-4690,PAYLOAD,2024-01-04 20:27:08,15.0885731,0.0001514,53.2157,207.1414,96.5281,263.5883,0.00027182,4.043e-05,0.0,0 STARLINK-4690,1 53604U 22104S   24004.85218573  .00004043  00000-0  27182-3 0  9990,2 53604  53.2157 207.1414 0001514  96.5281 263.5883 15.08857310 75009,6917.827,95.436,540.74,538.645,0.0
53604.0,STARLINK-4690,PAYLOAD,2024-01-05 18:42:34,15.08840545,0.0001638,53.2151,202.9808,135.5541,224.5583,6.0762e-06,-1.91e-06,0.0,0 STARLINK-4690,1 53604U 22104S   24005.77956035 -.00000191  00000-0  60762-5 0  9998,2 53604  53.2151 202.9808 0001638 135.5541 224.5583 15.08840545 75144,6917.879,95.438,540.877,538.611,0.0
53604.0,STARLINK-4690,PAYLOAD,2024-01-06 12:11:49,15.08838226,0.0001435,53.2155,199.7094,114.3524,245.7618,-0.00017002,-2.993e-05,0.0,0 STARLINK-4690,1 53604U 22104S   24006.50820812 -.00002993  00000-0 -17002-3 0  9993,2 53604  53.2155 199.7094 0001435 114.3524 245.7618 15.08838226 75258,6917.886,95.438,540.744,538.758,0.0
53604.0,STARLINK-4690,PAYLOAD,2024-01-06 20:08:44,15.0884158,0.0001292,53.2153,198.2229,84.1494,275.9646,-0.0002202,-3.791e-05,0.0,0 STARLINK-4690,1 53604U 22104S   24006.83940970 -.00003791  00000-0 -22020-3 0  9990,2 53604  53.2153 198.2229 0001292  84.1494 275.9646 15.08841580 75995,6917.876,95.437,540.634,538.847,0.0
53604.0,STARLINK-4690,PAYLOAD,2024-01-07 12:02:36,15.08825175,0.0001168,53.2151,195.2482,86.1027,274.0098,8.1156e-05,1.004e-05,0.0,0 STARLINK-4690,1 53604U 22104S   24007.50181212  .00001004  00000-0  81156-4 0  9990,2 53604  53.2151 195.2482 0001168  86.1027 274.0098 15.08825175 76092,6917.926,95.438,540.599,538.983,0.0
53604.0,STARLINK-4690,PAYLOAD,2024-01-07 19:59:32,15.08829452,0.0001253,53.2158,193.7625,81.8351,278.2784,0.00010643,1.406e-05,0.0,0 STARLINK-4690,1 53604U 22104S   24007.83301230  .00001406  00000-0  10643-3 0  9998,2 53604  53.2158 193.7625 0001253  81.8351 278.2784 15.08829452 75457,6917.913,95.438,540.644,538.911,0.0
53604.0,STARLINK-4690,PAYLOAD,2024-01-08 11:53:23,15.08833349,0.0001197,53.2158,190.7886,86.0627,274.0502,0.00011175,1.491e-05,0.0,0 STARLINK-4690,1 53604U 22104S   24008.49541354  .00001491  00000-0  11175-3 0  9999,2 53604  53.2158 190.7886 0001197  86.0627 274.0502 15.08833349 76243,6917.901,95.438,540.594,538.938,0.0
53604.0,STARLINK-4690,PAYLOAD,2024-01-08 18:14:56,15.08836532,0.0001207,53.2158,189.5994,85.5121,274.6009,0.00013591,1.876e-05,0.0,0 STARLINK-4690,1 53604U 22104S   24008.76037215  .00001876  00000-0  13591-3 0  9996,2 53604  53.2158 189.5994 0001207  85.5121 274.6009 15.08836532 76283,6917.891,95.438,540.591,538.921,0.0
53604.0,STARLINK-4690,PAYLOAD,2024-01-09 11:44:10,15.08842544,0.000123,53.2161,186.3288,82.7029,277.4103,0.00010105,1.321e-05,0.0,0 STARLINK-4690,1 53604U 22104S   24009.48901081  .00001321  00000-0  10105-3 0  9990,2 53604  53.2161 186.3288 0001230  82.7029 277.4103 15.08842544 75702,6917.873,95.437,540.589,538.887,0.0
53604.0,STARLINK-4690,PAYLOAD,2024-01-09 21:16:29,15.08846725,0.0001199,53.2159,184.5442,86.4882,273.6247,0.00012692,1.733e-05,0.0,0 STARLINK-4690,1 53604U 22104S   24009.88644693  .00001733  00000-0  12692-3 0  9997,2 53604  53.2159 184.5442 0001199  86.4882 273.6247 15.08846725 76458,6917.86,95.437,540.554,538.895,0.0
53604.0,STARLINK-4690,PAYLOAD,2024-01-10 11:34:57,15.08839426,0.0001258,53.2156,181.8669,101.7824,258.3309,1.5873e-05,-3.5e-07,0.0,0 STARLINK-4690,1 53604U 22104S   24010.48261358 -.00000035  00000-0  15873-4 0  9998,2 53604  53.2156 181.8669 0001258 101.7824 258.3309 15.08839426 75851,6917.882,95.438,540.617,538.877,0.0
53604.0,STARLINK-4690,PAYLOAD,2024-01-11 14:36:30,15.08842522,0.0001215,53.2154,176.8114,101.9999,258.1129,9.3988e-06,-1.38e-06,0.0,0 STARLINK-4690,1 53604U 22104S   24011.60869074 -.00000138  00000-0  93988-5 0  9990,2 53604  53.2154 176.8114 0001215 101.9999 258.1129 15.08842522 76711,6917.873,95.437,540.578,538.897,0.0
